GSAT0101 (GALILEO-PFM)  
1 37846U 11060A   24280.58780822 -.00000083  00000+0  00000+0 0  9992
2 37846  57.1243 358.5242 0000448 309.5915  50.4597  1.70475875 80573
GSAT0102 (GALILEO-FM2)  
1 37847U 11060B   24281.10404336 -.00000082  00000+0  00000+0 0  9994
2 37847  57.1247 358.5103 0002078 302.3187  60.0406  1.70475363 80597
GSAT0103 (GALILEO-FM3)  
1 38857U 12055A   24280.04069060  .00000058  00000+0  00000+0 0  9996
2 38857  55.4557 118.5574 0002005 266.2042  93.8553  1.70473724 74452
GSAT0201 (GALILEO 5)    
1 40128U 14050A   24281.19758264 -.00000028  00000+0  00000+0 0  9993
2 40128  49.5446 298.5546 1613921 155.6319 212.9522  1.85519597 66859
GSAT0202 (GALILEO 6)    
1 40129U 14050B   24279.29950053 -.00000041  00000+0  00000+0 0  9997
2 40129  49.5630 297.7095 1613061 156.3533 211.9899  1.85520356 68950
GSAT0203 (GALILEO 7)    
1 40544U 15017A   24280.95335824 -.00000082  00000+0  00000+0 0  9995
2 40544  56.9191 358.4330 0005077 246.3170 113.6851  1.70476293 58667
GSAT0204 (GALILEO 8)    
1 40545U 15017B   24280.03469253 -.00000085  00000+0  00000+0 0  9992
2 40545  56.9255 358.4740 0004823 232.7433 127.2671  1.70475938 21692
GSAT0205 (GALILEO 9)    
1 40889U 15045A   24279.21618446  .00000010  00000+0  00000+0 0  9999
2 40889  55.1729 238.7299 0003967  14.7716 345.2026  1.70473176 56448
GSAT0206 (GALILEO 10)   
1 40890U 15045B   24280.61001934  .00000018  00000+0  00000+0 0  9993
2 40890  55.1715 238.6868 0002360 351.3401   8.6265  1.70473180 56498
GSAT0209 (GALILEO 12)   
1 41174U 15079A   24280.19332710  .00000058  00000+0  00000+0 0  9992
2 41174  55.4744 118.2634 0002402 355.9751   4.1042  1.70474213 54229
GSAT0208 (GALILEO 11)   
1 41175U 15079B   24280.99974074  .00000058  00000+0  00000+0 0  9996
2 41175  55.4741 118.2389 0001931   9.3792 350.7019  1.70474042 54656
GSAT0211 (GALILEO 14)   
1 41549U 16030A   24279.94913751  .00000014  00000+0  00000+0 0  9999
2 41549  55.3205 238.7282 0003506 327.5933  32.3519  1.70473223 52114
GSAT0210 (GALILEO 13)   
1 41550U 16030B   24280.20724862  .00000016  00000+0  00000+0 0  9997
2 41550  55.3197 238.7195 0003413 246.1524 113.7801  1.70473621 52118
GSAT0207 (GALILEO 15)   
1 41859U 16069A   24281.07345993  .00000058  00000+0  00000+0 0  9997
2 41859  55.1404 118.2133 0001994 326.4345  33.6301  1.70474142 48869
GSAT0212 (GALILEO 16)   
1 41860U 16069B   24279.75448155  .00000057  00000+0  00000+0 0  9994
2 41860  55.1373 118.2460 0002312  31.3112 328.7861  1.70474332 49094
GSAT0213 (GALILEO 17)   
1 41861U 16069C   24280.12286208  .00000057  00000+0  00000+0 0  9997
2 41861  55.1398 118.2428 0001757 280.3757  79.6861  1.70474724 48961
GSAT0214 (GALILEO 18)   
1 41862U 16069D   24280.85478960  .00000057  00000+0  00000+0 0  9996
2 41862  55.1392 118.2161 0000835 290.8141  69.2550  1.70474349 49109
GSAT0215 (GALILEO 19)   
1 43055U 17079A   24281.34406125  .00000021  00000+0  00000+0 0  9994
2 43055  55.2968 238.5102 0002880 277.9730  81.9692  1.70473871 42456
GSAT0216 (GALILEO 20)   
1 43056U 17079B   24281.04908887  .00000020  00000+0  00000+0 0  9993
2 43056  55.2970 238.5182 0004360 283.3619  76.5628  1.70474018 42464
GSAT0217 (GALILEO 21)   
1 43057U 17079C   24280.68301459  .00000018  00000+0  00000+0 0  9992
2 43057  55.2953 238.5269 0003847 298.2141  61.7182  1.70473978 42449
GSAT0218 (GALILEO 22)   
1 43058U 17079D   24280.31648410  .00000016  00000+0  00000+0 0  9992
2 43058  55.2959 238.5345 0004818 279.1223  80.7922  1.70473993 42438
GSAT0221 (GALILEO 25)   
1 43564U 18060A   24279.04457424 -.00000088  00000+0  00000+0 0  9996
2 43564  57.2995 358.5131 0004586 261.2188  98.7822  1.70476338 38600
GSAT0222 (GALILEO 26)   
1 43565U 18060B   24281.02300652 -.00000082  00000+0  00000+0 0  9992
2 43565  57.3029 358.4618 0004866 235.6004 124.4093  1.70475939 38672
GSAT0219 (GALILEO 23)   
1 43566U 18060C   24278.89838022 -.00000089  00000+0  00000+0 0  9998
2 43566  57.3022 358.5208 0004413 268.6480  91.3541  1.70476202 38612
GSAT0220 (GALILEO 24)   
1 43567U 18060D   24280.29225275 -.00000084  00000+0  00000+0 0  9991
2 43567  57.3018 358.4841 0003986 261.9599  98.0499  1.70476289 38623
GSAT0223 (GALILEO 27)   
1 49809U 21116A   24281.26775681 -.00000081  00000+0  00000+0 0  9998
2 49809  57.2922 358.3515 0003847 209.8924 119.3141  1.70476456 17643
GSAT0224 (GALILEO 28)   
1 49810U 21116B   24279.32387472 -.00000087  00000+0  00000+0 0  9997
2 49810  57.2931 358.4020 0003156 207.6133 121.1064  1.70476578 17637
GSAT0225 (GALILEO 29)   
1 59598U 24079A   24280.27063205  .00000056  00000+0  00000+0 0  9998
2 59598  54.7561 118.4001 0002387 159.3920  21.2148  1.70474569  2766
GSAT0227 (GALILEO 30)   
1 59600U 24079C   24280.74638703  .00000056  00000+0  00000+0 0  9995
2 59600  54.7516 118.3868 0003627 110.0734 250.0446  1.70474448  2821
GSAT0232 (GALILEO 32)   
1 61182U 24167A   24281.37428638  .00000021  00000+0  00000+0 0  9997
2 61182  55.4074 238.2680 0017091 273.2677  86.5129  1.73177048   331
GSAT0226 (GALILEO 31)   
1 61183U 24167B   24278.53704925  .00000006  00000+0  00000+0 0  9991
2 61183  55.4090 238.3638 0032528  98.1835 216.1601  1.71379623   287
